GESAT GEN1              
1 62612U 25009D   26068.72662138  .00010041  00000+0  38326-3 0  9990
2 62612  97.4058 151.4598 0000888  98.3547 261.7793 15.26847505 63732
STARLINK-36430          
1 67326U 26002X   26068.10100734  .00029345  00000+0  10714-2 0  9999
2 67326  43.0007 328.1775 0003426 244.1670 115.8829 15.27585781 11153
